[
    {
        "Altitude(m)": 604234.6040470613,
        "Argument of Periapsis(deg)": 0.0,
        "Eccentricity": 0.0,
        "Inclination(deg)": 60.0,
        "Latitude(deg)": 14.117206209004955,
        "Longitude(deg)": -163.2726445134237,
        "Mean Anomaly(deg)": 163.6364,
        "RAAN(deg)": 125.00000000000001,
        "Satellite Name": "Test1 560",
        "Satellite Number": 560,
        "Semi-Major Axis(m)": 6980739.136638005,
        "Time(s)": 0
    },
    {
        "Altitude(m)": 604223.4327012586,
        "Argument of Periapsis(deg)": 0.00010418945913296404,
        "Eccentricity": 0.0,
        "Inclination(deg)": 60.0,
        "Latitude(deg)": 13.582342009380413,
        "Longitude(deg)": -162.98573648153723,
        "Mean Anomaly(deg)": 164.25650614546183,
        "RAAN(deg)": 124.99957995086027,
        "Satellite Name": "Test1 560",
        "Satellite Number": 560,
        "Semi-Major Axis(m)": 6980739.136638005,
        "Time(s)": 10
    }
]